[{"OBJECT_NAME":"JILIN-1 KUANFU 01C","OBJECT_ID":"2022-048A","EPOCH":"2026-03-09T22:44:12.026688","MEAN_MOTION":15.09601076,"ECCENTRICITY":0.00140886,"INCLINATION":97.5312,"RA_OF_ASC_NODE":147.8831,"ARG_OF_PERICENTER":308.8335,"MEAN_ANOMALY":51.1636,"EPHEMERIS_TYPE":0,"CLASSIFICATION_TYPE":"U","NORAD_CAT_ID":52443,"ELEMENT_SET_NO":999,"REV_AT_EPOCH":21222,"BSTAR":0.00028577595,"MEAN_MOTION_DOT":4.539e-5,"MEAN_MOTION_DDOT":0},{"OBJECT_NAME":"STARLINK-5237","OBJECT_ID":"2022-141AR","EPOCH":"2026-03-08T23:43:12.359136","MEAN_MOTION":15.08834766,"ECCENTRICITY":0.00012983,"INCLINATION":53.2195,"RA_OF_ASC_NODE":357.1519,"ARG_OF_PERICENTER":106.034,"MEAN_ANOMALY":254.0795,"EPHEMERIS_TYPE":0,"CLASSIFICATION_TYPE":"U","NORAD_CAT_ID":54196,"ELEMENT_SET_NO":999,"REV_AT_EPOCH":18589,"BSTAR":-2.0420605e-5,"MEAN_MOTION_DOT":-6.13e-6,"MEAN_MOTION_DDOT":0}]
